[Satellite]
VERSION=1.1
NAME=SATCOM C5
NICKNAME=SATCOM C5
TLE1=1 13631U 82105A   11057.92941475 -.00000120  00000-0  10000-3 0  8576
TLE2=2 13631  13.4901  25.5291 0007825 301.5078  58.4391  1.00273224 70338
